NORAD_CAT_ID,OBJECT_NAME,OBJECT_TYPE,EPOCH,MEAN_MOTION,ECCENTRICITY,INCLINATION,RA_OF_ASC_NODE,ARG_OF_PERICENTER,MEAN_ANOMALY,BSTAR,MEAN_MOTION_DOT,MEAN_MOTION_DDOT,TLE_LINE0,TLE_LINE1,TLE_LINE2,SEMIMAJOR_AXIS,PERIOD,APOGEE,PERIGEE,DECAYED
52877.0,STARLINK-4214,PAYLOAD,2022-08-27 22:00:00,15.73208836,0.0003686,53.2158,51.5369,7.0686,185.9959,0.00011729,0.0001588,0.0,0 STARLINK-4214,1 52877U 22062AZ  22239.91667824  .00015880  00000-0  11729-3 0  9997,2 52877  53.2158  51.5369 0003686   7.0686 185.9959 15.73208836 11735,6727.87,91.533,352.215,347.255,0.0
52877.0,STARLINK-4214,PAYLOAD,2022-08-28 14:00:01,15.73237343,0.0003562,53.2159,48.2352,10.7809,0.173,0.00010077,0.00013568,0.0,0 STARLINK-4214,1 52877U 22062AZ  22240.58334491  .00013568  00000-0  10077-3 0  9999,2 52877  53.2159  48.2352 0003562  10.7809   0.1730 15.73237343  1304,6727.7890000000025,91.531,352.05,347.25699999999995,0.0
52877.0,STARLINK-4214,PAYLOAD,2022-08-28 22:00:00,15.73329128,0.000352,53.2161,46.5864,7.9889,91.926,-0.0052461999999999,-0.00684233,0.0,0 STARLINK-4214,1 52877U 22062AZ  22240.91667824 -.00684233  00000-0 -52462-2 0  9993,2 52877  53.2161  46.5864 0003520   7.9889  91.9260 15.73329128  1305,6727.526999999999,91.526,351.76,347.024,0.0
52877.0,STARLINK-4214,PAYLOAD,2022-08-29 06:00:02,15.73081516,0.0003454,53.2176,44.9345,6.7342,181.9669,-0.0079513,-0.01005227,0.0,0 STARLINK-4214,1 52877U 22062AZ  22241.25002315 -.01005227  00000-0 -79513-2 0  9996,2 52877  53.2176  44.9345 0003454   6.7342 181.9669 15.73081516 11944,6728.233,91.54,352.422,347.774,0.0
52877.0,STARLINK-4214,PAYLOAD,2022-08-29 14:00:01,15.72356825,0.0003341,53.2175,43.2882,5.8543,271.1269,-0.008667,-0.01056376,0.0,0 STARLINK-4214,1 52877U 22062AZ  22241.58334491 -.01056376  00000-0 -86670-2 0  9998,2 52877  53.2175  43.2882 0003341   5.8543 271.1269 15.72356825  1303,6730.3,91.582,354.414,349.917,0.0
52877.0,STARLINK-4214,PAYLOAD,2022-08-29 22:00:00,15.7159453,0.0003647,53.2173,41.6451,359.4649,4.9633,-0.0089011,-0.01050893,0.0,0 STARLINK-4214,1 52877U 22062AZ  22241.91667824 -.01050893  00000-0 -89011-2 0  9994,2 52877  53.2173  41.6451 0003647 359.4649   4.9633 15.71594530  1302,6732.476,91.627,356.797,351.886,0.0
52877.0,STARLINK-4214,PAYLOAD,2022-08-30 14:00:01,15.70076047,0.0004556999999999,53.2177,38.3605,358.5556,178.0294,-0.0094966,-0.01051847,0.0,0 STARLINK-4214,1 52877U 22062AZ  22242.58334491 -.01051847  00000-0 -94966-2 0  9994,2 52877  53.2177  38.3605 0004557 358.5556 178.0294 15.70076047 12156,6736.816,91.715,361.751,355.612,0.0
52877.0,STARLINK-4214,PAYLOAD,2022-08-30 22:00:00,15.694057,8.55e-05,53.2169,36.7222,303.2095,318.0332,-0.01087,-0.01175161,0.0,0 STARLINK-4214,1 52877U 22062AZ  22242.91667824 -.01175161  00000-0 -10870-1 0  9997,2 52877  53.2169  36.7222 0000855 303.2095 318.0332 15.69405700  1300,6738.735,91.754,361.176,360.024,0.0
52877.0,STARLINK-4214,PAYLOAD,2022-08-31 14:00:01,15.67798625,0.0001250999999999,53.2175,33.4496,52.8388,15.1349,-0.010458,-0.0105195,0.0,0 STARLINK-4214,1 52877U 22062AZ  22243.58334491 -.01051950  00000-0 -10458-1 0  9993,2 52877  53.2175  33.4496 0001251  52.8388  15.1349 15.67798625  1309,6743.339,91.849,366.048,364.36,0.0
52877.0,STARLINK-4214,PAYLOAD,2022-08-31 20:00:01,15.67227081,0.0001018,53.2175,32.2256,79.0404,320.4971,-0.01067,-0.01048652,0.0,0 STARLINK-4214,1 52877U 22062AZ  22243.83334491 -.01048652  00000-0 -10670-1 0  9992,2 52877  53.2175  32.2256 0001018  79.0404 320.4971 15.67227081 12354,6744.978,91.882,367.53,366.157,0.0
52877.0,STARLINK-4214,PAYLOAD,2022-08-31 22:00:00,15.67068677,0.0001272,53.2169,31.816,65.6541,84.2698,-0.011106,-0.01080806,0.0,0 STARLINK-4214,1 52877U 22062AZ  22243.91667824 -.01080806  00000-0 -11106-1 0  9992,2 52877  53.2169  31.8160 0001272  65.6541  84.2698 15.67068677  1309,6745.433000000001,91.891,368.156,366.44,0.0
52877.0,STARLINK-4214,PAYLOAD,2022-09-01 14:00:01,15.65530171,0.0001104,53.2176,28.5532,85.0351,226.1752,-0.011623,-0.01064357,0.0,0 STARLINK-4214,1 52877U 22062AZ  22244.58335648 -.01064357  00000-0 -11623-1 0  9999,2 52877  53.2176  28.5532 0001104  85.0351 226.1752 15.65530171  1301,6749.851,91.982,372.462,370.971,0.0
52877.0,STARLINK-4214,PAYLOAD,2022-09-01 22:00:00,15.64760296,0.0001013,53.2171,26.9282,72.7697,317.6114,-0.011798,-0.01049113,0.0,0 STARLINK-4214,1 52877U 22062AZ  22244.91667824 -.01049113  00000-0 -11798-1 0  9996,2 52877  53.2171  26.9282 0001013  72.7697 317.6114 15.64760296  1305,6752.065,92.027,374.614,373.246,0.0
52877.0,STARLINK-4214,PAYLOAD,2022-09-02 14:00:01,15.63238157,0.0001402,53.2174,23.6776,56.7778,129.3332,-0.0124739999999999,-0.01044587,0.0,0 STARLINK-4214,1 52877U 22062AZ  22245.58334491 -.01044587  00000-0 -12474-1 0  9993,2 52877  53.2174  23.6776 0001402  56.7778 129.3332 15.63238157 12626,6756.448,92.116,379.26,377.365,0.0
52877.0,STARLINK-4214,PAYLOAD,2022-09-02 22:00:01,15.62482032,0.0001161,53.2171,22.0558,71.3258,191.3437,-0.012915,-0.01065446,0.0,0 STARLINK-4214,1 52877U 22062AZ  22245.91668981 -.01065446  00000-0 -12915-1 0  9991,2 52877  53.2171  22.0558 0001161  71.3258 191.3437 15.62482032  1302,6758.627,92.161,381.277,379.707,0.0
52877.0,STARLINK-4214,PAYLOAD,2022-09-03 08:00:01,15.61530629,0.000138,53.2174,20.0285,47.7468,39.1952,-0.0133689999999999,-0.01062893,0.0,0 STARLINK-4214,1 52877U 22062AZ  22246.33334491 -.01062893  00000-0 -13369-1 0  9991,2 52877  53.2174  20.0285 0001380  47.7468  39.1952 15.61530629 12749,6761.371999999999,92.217,384.17,382.304,0.0
52877.0,STARLINK-4214,PAYLOAD,2022-09-03 14:00:01,15.60962925,0.0001398,53.2175,18.8165,44.0946,8.7623,-0.013705,-0.01065551,0.0,0 STARLINK-4214,1 52877U 22062AZ  22246.58334491 -.01065551  00000-0 -13705-1 0  9996,2 52877  53.2175  18.8165 0001398  44.0946   8.7623 15.60962925  1306,6763.011,92.251,385.822,383.931,0.0
52877.0,STARLINK-4214,PAYLOAD,2022-09-03 22:00:00,15.60235369,0.0001491,53.2171,17.1987,49.1934,77.4043,-0.014687,-0.01106116,0.0,0 STARLINK-4214,1 52877U 22062AZ  22246.91667824 -.01106116  00000-0 -14687-1 0  9995,2 52877  53.2171  17.1987 0001491  49.1934  77.4043 15.60235369  1307,6765.114000000001,92.294,387.987,385.97,0.0
52877.0,STARLINK-4214,PAYLOAD,2022-09-04 06:00:00,15.59442242,0.0001374,53.2174,15.5833,57.8477,141.6123,-0.014488,-0.0106252999999999,0.0,0 STARLINK-4214,1 52877U 22062AZ  22247.25001157 -.01062530  00000-0 -14488-1 0  9994,2 52877  53.2174  15.5833 0001374  57.8477 141.6123 15.59442242 12886,6767.406999999997,92.341,390.202,388.342,0.0
52877.0,STARLINK-4214,PAYLOAD,2022-09-04 14:00:01,15.58682622,0.0001315999999999,53.2176,13.9703,58.923,212.5329,-0.014889,-0.01060834,0.0,0 STARLINK-4214,1 52877U 22062AZ  22247.58335648 -.01060834  00000-0 -14889-1 0  9995,2 52877  53.2176  13.9703 0001316  58.9230 212.5329 15.58682622  1309,6769.606,92.386,392.362,390.58,0.0
52877.0,STARLINK-4214,PAYLOAD,2022-09-04 20:00:01,15.58110635,0.0001334,53.2172,12.764,58.3817,176.3591,-0.015156,-0.01057004,0.0,0 STARLINK-4214,1 52877U 22062AZ  22247.83334491 -.01057004  00000-0 -15156-1 0  9991,2 52877  53.2172  12.7640 0001334  58.3817 176.3591 15.58110635  1305,6771.262,92.42,394.031,392.224,0.0
52877.0,STARLINK-4214,PAYLOAD,2022-09-05 06:00:00,15.57162935,0.0001276,53.2173,10.7497,48.6511,3.8666,-0.01578,-0.01061358,0.0,0 STARLINK-4214,1 52877U 22062AZ  22248.25001157 -.01061358  00000-0 -15780-1 0  9998,2 52877  53.2173  10.7497 0001276  48.6511   3.8666 15.57162935 13042,6774.01,92.476,396.739,395.01,0.0
52877.0,STARLINK-4214,PAYLOAD,2022-09-05 14:00:01,15.56404106,0.0001496,53.2173,9.144,48.5543,73.1556,-0.016235,-0.01061361,0.0,0 STARLINK-4214,1 52877U 22062AZ  22248.58334491 -.01061361  00000-0 -16235-1 0  9994,2 52877  53.2173   9.1440 0001496  48.5543  73.1556 15.56404106  1302,6776.2109999999975,92.521,399.09,397.062,0.0
52877.0,STARLINK-4214,PAYLOAD,2022-09-05 22:00:00,15.55682647,0.0001422,53.2168,7.537000000000001,48.0467,141.9265,-0.017571,-0.01112827,0.0,0 STARLINK-4214,1 52877U 22062AZ  22248.91667824 -.01112827  00000-0 -17571-1 0  9998,2 52877  53.2168   7.5370 0001422  48.0467 141.9265 15.55682647  1307,6778.306,92.564,401.135,399.207,0.0
52877.0,STARLINK-4214,PAYLOAD,2022-09-06 06:00:00,15.54884279,0.0001323,53.2172,5.9325,58.7773,198.5835,-0.017153,-0.01059813,0.0,0 STARLINK-4214,1 52877U 22062AZ  22249.25001157 -.01059813  00000-0 -17153-1 0  9998,2 52877  53.2172   5.9325 0001323  58.7773 198.5835 15.54884279 13209,6780.626,92.611,403.388,401.594,0.0
52877.0,STARLINK-4214,PAYLOAD,2022-09-06 14:00:01,15.54126003,0.0001509,53.2173,4.3324,40.4043,283.4105,-0.017666,-0.01061313,0.0,0 STARLINK-4214,1 52877U 22062AZ  22249.58334491 -.01061313  00000-0 -17666-1 0  9991,2 52877  53.2173   4.3324 0001509  40.4043 283.4105 15.54126003  1302,6782.831,92.657,405.72,403.673,0.0
52877.0,STARLINK-4214,PAYLOAD,2022-09-06 22:00:00,15.53414726,0.0001476999999999,53.2169,2.7304,39.1465,350.1876,-0.0193139999999999,-0.01123836,0.0,0 STARLINK-4214,1 52877U 22062AZ  22249.91667824 -.01123836  00000-0 -19314-1 0  9998,2 52877  53.2169   2.7304 0001477  39.1465 350.1876 15.53414726  1302,6784.901999999999,92.699,407.769,405.765,0.0
52877.0,STARLINK-4214,PAYLOAD,2022-09-07 04:00:00,15.52794534,0.0001334,53.2174,1.5314,43.3313,304.5871,-0.018476,-0.01057511,0.0,0 STARLINK-4214,1 52877U 22062AZ  22250.16667824 -.01057511  00000-0 -18476-1 0  9991,2 52877  53.2174   1.5314 0001334  43.3313 304.5871 15.52794534 13349,6786.708000000001,92.736,409.479,407.668,0.0
52877.0,STARLINK-4214,PAYLOAD,2022-09-07 14:00:01,15.51866286,0.0001523,53.2175,359.5356,51.0769,106.6198,-0.019633,-0.01083893,0.0,0 STARLINK-4214,1 52877U 22062AZ  22250.58334491 -.01083893  00000-0 -19633-1 0  9996,2 52877  53.2175 359.5356 0001523  51.0769 106.6198 15.51866286  1302,6789.4140000000025,92.791,412.31300000000016,410.245,0.0
